QZS-1 (MICHIBIKI)
1 37158U 10045A   23121.89720895 -.00000055  00000-0  00000-0 0  9992
2 37158  42.6777 129.0062 0759945 270.3715 281.7029  1.00288678 46282